STARLINK-36146          
1 67426U 26005Y   26020.83335648 -.01553107  68635-3 -41905-2 0  9994
2 67426  43.0015 156.4829 0001835 287.6666  59.2229 15.93489100  2442
STARLINK-36459          
1 67427U 26005Z   26020.83335648 -.01542473  67798-3 -41533-2 0  9995
2 67427  43.0015 156.4780 0001819 287.6250  61.1569 15.93526223  2414
STARLINK-36464          
1 67428U 26005AA  26020.83335648 -.01541922  67814-3 -41319-2 0  9995
2 67428  43.0017 156.4694 0001907 287.2751  64.8107 15.93616581  2494
STARLINK-36513          
1 67429U 26005AB  26020.83335648 -.01555459  68952-3 -41563-2 0  9991
2 67429  43.0016 156.4656 0001712 285.0675  68.5992 15.93673136  2499
STARLINK-36515          
1 67430U 26005AC  26020.83335648 -.01538333  67493-3 -41325-2 0  9990
2 67430  43.0015 156.4737 0001902 282.9532  67.5647 15.93569541  2411
STARLINK-36443          
1 67431U 26005AD  26020.83335648 -.01552074  68705-3 -41376-2 0  9992
2 67431  43.0016 156.4598 0001849 287.1931  68.5894 15.93716078  2445
STARLINK-36460          
1 67432U 26005AE  26020.83335648 -.01553956  68893-3 -41314-2 0  9993
2 67432  43.0014 156.4559 0002033 288.4390  68.9432 15.93766740  2498
YAOGAN-50 01            
1 67433U 26006A   26022.49047611  .00000122  00000+0 -59044-4 0  9992
2 67433 142.0298 231.6946 0000716 275.1498  84.9139 13.83249060  1250
CZ-6A R/B               
1 67434U 26006B   26022.52683274  .00001681  00000+0  19653-3 0  9999
2 67434 142.0431 236.6532 0202093 147.1623 214.1837 14.62262541  1312
HULIANWANG DIGUI-137    
1 67435U 26007A   26020.50743721  .00000099  00000+0  19094-3 0  9992
2 67435  50.0081 267.0622 0008366 293.1094  66.8923 13.92122219   968
HULIANWANG DIGUI-138    
1 67436U 26007B   26020.50797497  .00000094  00000+0  18756-3 0  9991
2 67436  50.0062 267.0620 0007477 281.0590  78.9469 13.92014999   969
HULIANWANG DIGUI-139    
1 67437U 26007C   26020.50776287  .00000137  00000+0  22102-3 0  9994
2 67437  50.0030 267.0572 0008140 288.3291  71.6723 13.92055381   960
