CCSDS_OMM_VERS = 2.0
CREATION_DATE  = 
ORIGINATOR     = 

OBJECT_NAME    = STARLINK-36146
OBJECT_ID      = 2026-005Y
CENTER_NAME    = EARTH
REF_FRAME      = TEME
TIME_SYSTEM    = UTC
MEAN_ELEMENT_THEORY = SGP/SGP4

EPOCH          = 2026-01-20T20:00:01.999872
MEAN_MOTION    = 15.93489100
ECCENTRICITY   = .0001835
INCLINATION    = 43.0015
RA_OF_ASC_NODE = 156.4829
ARG_OF_PERICENTER = 287.6666
MEAN_ANOMALY   = 59.2229

EPHEMERIS_TYPE = 0
CLASSIFICATION_TYPE = U
NORAD_CAT_ID   = 67426
ELEMENT_SET_NO = 999
REV_AT_EPOCH   = 244
BSTAR          = -.41905438E-2
MEAN_MOTION_DOT = -.1553107E-1
MEAN_MOTION_DDOT = .68635145E-3

CCSDS_OMM_VERS = 2.0
CREATION_DATE  = 
ORIGINATOR     = 

OBJECT_NAME    = STARLINK-36459
OBJECT_ID      = 2026-005Z
CENTER_NAME    = EARTH
REF_FRAME      = TEME
TIME_SYSTEM    = UTC
MEAN_ELEMENT_THEORY = SGP/SGP4

EPOCH          = 2026-01-20T20:00:01.999872
MEAN_MOTION    = 15.93526223
ECCENTRICITY   = .00018198
INCLINATION    = 43.0015
RA_OF_ASC_NODE = 156.4780
ARG_OF_PERICENTER = 287.6250
MEAN_ANOMALY   = 61.1569

EPHEMERIS_TYPE = 0
CLASSIFICATION_TYPE = U
NORAD_CAT_ID   = 67427
ELEMENT_SET_NO = 999
REV_AT_EPOCH   = 241
BSTAR          = -.41533297E-2
MEAN_MOTION_DOT = -.1542473E-1
MEAN_MOTION_DDOT = .67798439E-3

CCSDS_OMM_VERS = 2.0
CREATION_DATE  = 
ORIGINATOR     = 

OBJECT_NAME    = STARLINK-36464
OBJECT_ID      = 2026-005AA
CENTER_NAME    = EARTH
REF_FRAME      = TEME
TIME_SYSTEM    = UTC
MEAN_ELEMENT_THEORY = SGP/SGP4

EPOCH          = 2026-01-20T20:00:01.999872
MEAN_MOTION    = 15.93616581
ECCENTRICITY   = .00019074
INCLINATION    = 43.0017
RA_OF_ASC_NODE = 156.4694
ARG_OF_PERICENTER = 287.2751
MEAN_ANOMALY   = 64.8107

EPHEMERIS_TYPE = 0
CLASSIFICATION_TYPE = U
NORAD_CAT_ID   = 67428
ELEMENT_SET_NO = 999
REV_AT_EPOCH   = 249
BSTAR          = -.41319234E-2
MEAN_MOTION_DOT = -.1541922E-1
MEAN_MOTION_DDOT = .67814458E-3

CCSDS_OMM_VERS = 2.0
CREATION_DATE  = 
ORIGINATOR     = 

OBJECT_NAME    = STARLINK-36513
OBJECT_ID      = 2026-005AB
CENTER_NAME    = EARTH
REF_FRAME      = TEME
TIME_SYSTEM    = UTC
MEAN_ELEMENT_THEORY = SGP/SGP4

EPOCH          = 2026-01-20T20:00:01.999872
MEAN_MOTION    = 15.93673136
ECCENTRICITY   = .00017129
INCLINATION    = 43.0016
RA_OF_ASC_NODE = 156.4656
ARG_OF_PERICENTER = 285.0675
MEAN_ANOMALY   = 68.5992

EPHEMERIS_TYPE = 0
CLASSIFICATION_TYPE = U
NORAD_CAT_ID   = 67429
ELEMENT_SET_NO = 999
REV_AT_EPOCH   = 249
BSTAR          = -.41563135E-2
MEAN_MOTION_DOT = -.1555459E-1
MEAN_MOTION_DDOT = .6895181E-3

CCSDS_OMM_VERS = 2.0
CREATION_DATE  = 
ORIGINATOR     = 

OBJECT_NAME    = STARLINK-36515
OBJECT_ID      = 2026-005AC
CENTER_NAME    = EARTH
REF_FRAME      = TEME
TIME_SYSTEM    = UTC
MEAN_ELEMENT_THEORY = SGP/SGP4

EPOCH          = 2026-01-20T20:00:01.999872
MEAN_MOTION    = 15.93569541
ECCENTRICITY   = .00019026
INCLINATION    = 43.0015
RA_OF_ASC_NODE = 156.4737
ARG_OF_PERICENTER = 282.9532
MEAN_ANOMALY   = 67.5647

EPHEMERIS_TYPE = 0
CLASSIFICATION_TYPE = U
NORAD_CAT_ID   = 67430
ELEMENT_SET_NO = 999
REV_AT_EPOCH   = 241
BSTAR          = -.4132482E-2
MEAN_MOTION_DOT = -.1538333E-1
MEAN_MOTION_DDOT = .67493265E-3

CCSDS_OMM_VERS = 2.0
CREATION_DATE  = 
ORIGINATOR     = 

OBJECT_NAME    = STARLINK-36443
OBJECT_ID      = 2026-005AD
CENTER_NAME    = EARTH
REF_FRAME      = TEME
TIME_SYSTEM    = UTC
MEAN_ELEMENT_THEORY = SGP/SGP4

EPOCH          = 2026-01-20T20:00:01.999872
MEAN_MOTION    = 15.93716078
ECCENTRICITY   = .00018493
INCLINATION    = 43.0016
RA_OF_ASC_NODE = 156.4598
ARG_OF_PERICENTER = 287.1931
MEAN_ANOMALY   = 68.5894

EPHEMERIS_TYPE = 0
CLASSIFICATION_TYPE = U
NORAD_CAT_ID   = 67431
ELEMENT_SET_NO = 999
REV_AT_EPOCH   = 244
BSTAR          = -.4137613E-2
MEAN_MOTION_DOT = -.1552074E-1
MEAN_MOTION_DDOT = .68705298E-3

CCSDS_OMM_VERS = 2.0
CREATION_DATE  = 
ORIGINATOR     = 

OBJECT_NAME    = STARLINK-36460
OBJECT_ID      = 2026-005AE
CENTER_NAME    = EARTH
REF_FRAME      = TEME
TIME_SYSTEM    = UTC
MEAN_ELEMENT_THEORY = SGP/SGP4

EPOCH          = 2026-01-20T20:00:01.999872
MEAN_MOTION    = 15.93766740
ECCENTRICITY   = .00020335
INCLINATION    = 43.0014
RA_OF_ASC_NODE = 156.4559
ARG_OF_PERICENTER = 288.4390
MEAN_ANOMALY   = 68.9432

EPHEMERIS_TYPE = 0
CLASSIFICATION_TYPE = U
NORAD_CAT_ID   = 67432
ELEMENT_SET_NO = 999
REV_AT_EPOCH   = 249
BSTAR          = -.4131412E-2
MEAN_MOTION_DOT = -.1553956E-1
MEAN_MOTION_DDOT = .68893077E-3

CCSDS_OMM_VERS = 2.0
CREATION_DATE  = 
ORIGINATOR     = 

OBJECT_NAME    = YAOGAN-50 01
OBJECT_ID      = 2026-006A
CENTER_NAME    = EARTH
REF_FRAME      = TEME
TIME_SYSTEM    = UTC
MEAN_ELEMENT_THEORY = SGP/SGP4

EPOCH          = 2026-01-22T11:46:17.135904
MEAN_MOTION    = 13.83249060
ECCENTRICITY   = .0000716
INCLINATION    = 142.0298
RA_OF_ASC_NODE = 231.6946
ARG_OF_PERICENTER = 275.1498
MEAN_ANOMALY   = 84.9139

EPHEMERIS_TYPE = 0
CLASSIFICATION_TYPE = U
NORAD_CAT_ID   = 67433
ELEMENT_SET_NO = 999
REV_AT_EPOCH   = 125
BSTAR          = -.59044E-4
MEAN_MOTION_DOT = .122E-5
MEAN_MOTION_DDOT = 0

CCSDS_OMM_VERS = 2.0
CREATION_DATE  = 
ORIGINATOR     = 

OBJECT_NAME    = CZ-6A R/B
OBJECT_ID      = 2026-006B
CENTER_NAME    = EARTH
REF_FRAME      = TEME
TIME_SYSTEM    = UTC
MEAN_ELEMENT_THEORY = SGP/SGP4

EPOCH          = 2026-01-22T12:38:38.348736
MEAN_MOTION    = 14.62262541
ECCENTRICITY   = .0202093
INCLINATION    = 142.0431
RA_OF_ASC_NODE = 236.6532
ARG_OF_PERICENTER = 147.1623
MEAN_ANOMALY   = 214.1837

EPHEMERIS_TYPE = 0
CLASSIFICATION_TYPE = U
NORAD_CAT_ID   = 67434
ELEMENT_SET_NO = 999
REV_AT_EPOCH   = 131
BSTAR          = .19653E-3
MEAN_MOTION_DOT = .1681E-4
MEAN_MOTION_DDOT = 0

CCSDS_OMM_VERS = 2.0
CREATION_DATE  = 
ORIGINATOR     = 

OBJECT_NAME    = HULIANWANG DIGUI-137
OBJECT_ID      = 2026-007A
CENTER_NAME    = EARTH
REF_FRAME      = TEME
TIME_SYSTEM    = UTC
MEAN_ELEMENT_THEORY = SGP/SGP4

EPOCH          = 2026-01-20T12:10:42.574944
MEAN_MOTION    = 13.92122219
ECCENTRICITY   = .00083668
INCLINATION    = 50.0081
RA_OF_ASC_NODE = 267.0622
ARG_OF_PERICENTER = 293.1094
MEAN_ANOMALY   = 66.8923

EPHEMERIS_TYPE = 0
CLASSIFICATION_TYPE = U
NORAD_CAT_ID   = 67435
ELEMENT_SET_NO = 999
REV_AT_EPOCH   = 96
BSTAR          = .19093664E-3
MEAN_MOTION_DOT = .99E-6
MEAN_MOTION_DDOT = 0

CCSDS_OMM_VERS = 2.0
CREATION_DATE  = 
ORIGINATOR     = 

OBJECT_NAME    = HULIANWANG DIGUI-138
OBJECT_ID      = 2026-007B
CENTER_NAME    = EARTH
REF_FRAME      = TEME
TIME_SYSTEM    = UTC
MEAN_ELEMENT_THEORY = SGP/SGP4

EPOCH          = 2026-01-20T12:11:29.037408
MEAN_MOTION    = 13.92014999
ECCENTRICITY   = .00074773
INCLINATION    = 50.0062
RA_OF_ASC_NODE = 267.0620
ARG_OF_PERICENTER = 281.0590
MEAN_ANOMALY   = 78.9469

EPHEMERIS_TYPE = 0
CLASSIFICATION_TYPE = U
NORAD_CAT_ID   = 67436
ELEMENT_SET_NO = 999
REV_AT_EPOCH   = 96
BSTAR          = .18755747E-3
MEAN_MOTION_DOT = .94E-6
MEAN_MOTION_DDOT = 0

CCSDS_OMM_VERS = 2.0
CREATION_DATE  = 
ORIGINATOR     = 

OBJECT_NAME    = HULIANWANG DIGUI-139
OBJECT_ID      = 2026-007C
CENTER_NAME    = EARTH
REF_FRAME      = TEME
TIME_SYSTEM    = UTC
MEAN_ELEMENT_THEORY = SGP/SGP4

EPOCH          = 2026-01-20T12:11:10.711968
MEAN_MOTION    = 13.92055381
ECCENTRICITY   = .00081406
INCLINATION    = 50.0030
RA_OF_ASC_NODE = 267.0572
ARG_OF_PERICENTER = 288.3291
MEAN_ANOMALY   = 71.6723

EPHEMERIS_TYPE = 0
CLASSIFICATION_TYPE = U
NORAD_CAT_ID   = 67437
ELEMENT_SET_NO = 999
REV_AT_EPOCH   = 96
BSTAR          = .22101654E-3
MEAN_MOTION_DOT = .137E-5
MEAN_MOTION_DDOT = 0

